{
  "44714": {
    "noradId": "44714",
    "tle": [
      "1 44714C 19074B   26053.20465278  .00008026  00000+0  26361-3 0   538",
      "2 44714  53.1556 250.7781 0001217  89.4947 101.5429 15.31015526    11"
    ]
  },
  "44718": {
    "noradId": "44718",
    "tle": [
      "1 44718C 19074F   26053.19701389  .00081944  00000+0  27651-2 0   538",
      "2 44718  53.1598 250.7686 0001213  86.3596 217.3411 15.30070948    12"
    ]
  },
  "44723": {
    "noradId": "44723",
    "tle": [
      "1 44723C 19074L   26053.17965278  .00037722  00000+0  16002-2 0   534",
      "2 44723  53.0507 242.9284 0003403 130.1004 169.5131 15.22539562    19"
    ]
  },
  "44724": {
    "noradId": "44724",
    "tle": [
      "1 44724C 19074M   26053.18798611  .00102370  00000+0  60968-3 0   534",
      "2 44724  53.0440 214.4092 0006033 150.0068 306.1306 15.77126072    11"
    ]
  },
  "44725": {
    "noradId": "44725",
    "tle": [
      "1 44725C 19074N   26053.20395833  .00643250  00000+0  27810-1 0   531",
      "2 44725  53.1222 275.5749 0001398  96.1784  95.7623 15.21298572    19"
    ]
  },
  "44736": {
    "noradId": "44736",
    "tle": [
      "1 44736C 19074Z   26053.19979167  .00158190  00000+0  67766-3 0   539",
      "2 44736  53.0417 198.6246 0002405 244.4429  46.0321 15.84237377    16"
    ]
  },
  "44741": {
    "noradId": "44741",
    "tle": [
      "1 44741C 19074AE  26053.19493056  .00111800  00000+0  17857-2 0   535",
      "2 44741  53.0530 263.3580 0005025 161.4260 289.7583 15.52444399    16"
    ]
  },
  "44744": {
    "noradId": "44744",
    "tle": [
      "1 44744C 19074AH  26053.20465278  .00036926  00000+0  16796-2 0   531",
      "2 44744  53.0445 286.1910 0006509 127.4712  50.5245 15.20148771    15"
    ]
  },
  "44747": {
    "noradId": "44747",
    "tle": [
      "1 44747C 19074AL  26053.21159722  .00024190  00000+0  43904-3 0   531",
      "2 44747  53.0434 169.0063 0002389 110.2845 110.0579 15.48953265    17"
    ]
  },
  "44748": {
    "noradId": "44748",
    "tle": [
      "1 44748C 19074AM  26053.21368056  .00030913  00000+0  49358-3 0   533",
      "2 44748  53.0519 269.1012 0002832  87.2788 273.6053 15.52546179    10"
    ]
  },
  "44751": {
    "noradId": "44751",
    "tle": [
      "1 44751C 19074AQ  26053.19701389  .00091703  00000+0  20857-2 0   530",
      "2 44751  53.0533 284.3987 0007597 125.2689 252.1880 15.42282197    12"
    ]
  },
  "44752": {
    "noradId": "44752",
    "tle": [
      "1 44752C 19074AR  26053.19215278  .00009007  00000+0  28526-3 0   536",
      "2 44752  53.0692 218.3823 0003878 149.9319 336.4970 15.32171126    10"
    ]
  },
  "44753": {
    "noradId": "44753",
    "tle": [
      "1 44753C 19074AS  26053.19145833  .00028026  00000+0  47993-3 0   537",
      "2 44753  53.0540 243.4083 0004669 135.1925 215.3091 15.50586745    15"
    ]
  },
  "44758": {
    "noradId": "44758",
    "tle": [
      "1 44758C 19074AX  26053.16993056  .00202730  00000+0  86477-3 0   533",
      "2 44758  53.0301 162.2617 0004546 353.0292 225.1110 15.84268748    16"
    ]
  },
  "44768": {
    "noradId": "44768",
    "tle": [
      "1 44768C 19074BH  26053.19840278  .00013393  00000+0  45134-3 0   534",
      "2 44768  53.1568 291.3523 0001193  90.6023 220.1885 15.30182733    18"
    ]
  },
  "44771": {
    "noradId": "44771",
    "tle": [
      "1 44771C 19074BL  26053.19909722  .00088246  00000+0  13356-2 0   537",
      "2 44771  53.0531 279.1369 0000952 150.6533 138.8717 15.53967269    17"
    ]
  },
  "44772": {
    "noradId": "44772",
    "tle": [
      "1 44772C 19074BM  26053.14145833  .00043017  00000+0  52134-3 0   533",
      "2 44772  53.0502 255.8045 0004679 159.5057 239.2151 15.59950760    19"
    ]
  },
  "44925": {
    "noradId": "44925",
    "tle": [
      "1 44925C 20001M   26053.17826389  .00415400  00000+0  92227-3 0   536",
      "2 44925  53.0392 321.4458 0002093 143.9934  10.8723 15.96774036    12"
    ]
  },
  "44927": {
    "noradId": "44927",
    "tle": [
      "1 44927C 20001P   26053.20118056  .00068468  00000+0  13082-2 0   536",
      "2 44927  53.0513  43.5455 0008453  57.0405 356.8974 15.47400950    10"
    ]
  },
  "44930": {
    "noradId": "44930",
    "tle": [
      "1 44930C 20001S   26053.20673611  .00913750  00000+0  56566-1 0   539",
      "2 44930  53.0656  56.1180 0001467  87.8353 322.4997 15.08394091    17"
    ]
  },
  "44941": {
    "noradId": "44941",
    "tle": [
      "1 44941C 20001AD  26053.20534722  .00002055  00000+0  69283-4 0   530",
      "2 44941  53.1605  31.4849 0001279  89.6690 278.5747 15.30184076    16"
    ]
  },
  "44949": {
    "noradId": "44949",
    "tle": [
      "1 44949C 20001AM  26053.17826389 -.00000728  00000+0 -24530-4 0   530",
      "2 44949  53.1590  31.6574 0001525  87.6854 346.0803 15.30190912    18"
    ]
  },
  "44961": {
    "noradId": "44961",
    "tle": [
      "1 44961C 20001AZ  26053.18729167  .00073303  00000+0  15516-2 0   530",
      "2 44961  53.0535   2.1065 0009168  62.4433  70.6743 15.44411470    16"
    ]
  },
  "44968": {
    "noradId": "44968",
    "tle": [
      "1 44968C 20001BG  26053.18381944  .00006689  00000+0  44859-3 0   530",
      "2 44968  53.0548  16.2281 0001601  86.7549 355.4135 15.06359076    14"
    ]
  },
  "45044": {
    "noradId": "45044",
    "tle": [
      "1 45044C 20006A   26053.20256944  .00067202  00000+0  15665-2 0   535",
      "2 45044  53.1581 327.2710 0005425 129.3132  31.9144 15.41588321    12"
    ]
  },
  "45047": {
    "noradId": "45047",
    "tle": [
      "1 45047C 20006D   26053.20812500  .00014442  00000+0  48681-3 0   537",
      "2 45047  53.1578 352.8921 0001236  90.1342  29.8613 15.30172735    16"
    ]
  },
  "45048": {
    "noradId": "45048",
    "tle": [
      "1 45048C 20006E   26053.17340278  .00024992  00000+0  57356-3 0   532",
      "2 45048  53.0338 311.9836 0010488 121.2932  47.0701 15.42049377    19"
    ]
  },
  "45054": {
    "noradId": "45054",
    "tle": [
      "1 45054C 20006L   26053.20604167  .00014054  00000+0  47382-3 0   539",
      "2 45054  53.1589 352.9155 0001492 100.3358 222.9933 15.30166313    17"
    ]
  },
  "45057": {
    "noradId": "45057",
    "tle": [
      "1 45057C 20006P   26053.20534722  .00118760  00000+0  69532-3 0   531",
      "2 45057  53.0480 312.4209 0006284  94.6912 342.0245 15.77490835    15"
    ]
  },
  "45060": {
    "noradId": "45060",
    "tle": [
      "1 45060C 20006S   26053.19909722  .00033720  00000+0  73940-3 0   539",
      "2 45060  53.0540 346.3643 0006270  91.4380  54.1474 15.43435796    16"
    ]
  },
  "45061": {
    "noradId": "45061",
    "tle": [
      "1 45061C 20006T   26053.20673611 -.00002688  00000+0 -90639-4 0   533",
      "2 45061  53.1594 352.9129 0001251  87.4539  59.7886 15.30173791    12"
    ]
  },
  "45062": {
    "noradId": "45062",
    "tle": [
      "1 45062C 20006U   26053.20465278  .00093430  00000+0  13893-2 0   530",
      "2 45062  53.0471 324.4933 0002025 348.3869 197.5442 15.54444971    14"
    ]
  },
  "45064": {
    "noradId": "45064",
    "tle": [
      "1 45064C 20006W   26053.20187500  .00016184  00000+0  54501-3 0   534",
      "2 45064  53.1576 329.7416 0001239  91.5360 356.8972 15.30201371    13"
    ]
  },
  "45071": {
    "noradId": "45071",
    "tle": [
      "1 45071C 20006AD  26053.20673611  .00015140  00000+0  52361-3 0   538",
      "2 45071  53.1570 329.6786 0001283  93.0461 275.0479 15.29341501    14"
    ]
  },
  "45072": {
    "noradId": "45072",
    "tle": [
      "1 45072C 20006AE  26053.20465278  .00011100  00000+0  38392-3 0   537",
      "2 45072  53.1584 329.7490 0001559  91.1072 211.5276 15.29340992    19"
    ]
  },
  "45074": {
    "noradId": "45074",
    "tle": [
      "1 45074C 20006AG  26053.19006944  .00016533  00000+0  55705-3 0   530",
      "2 45074  53.1601 329.8191 0001284  84.3211  66.8115 15.30185640    16"
    ]
  },
  "45080": {
    "noradId": "45080",
    "tle": [
      "1 45080C 20006AN  26053.21229167  .00013174  00000+0  45565-3 0   535",
      "2 45080  53.1570 329.5693 0001206  86.8407  37.7409 15.29341368    12"
    ]
  },
  "45081": {
    "noradId": "45081",
    "tle": [
      "1 45081C 20006AP  26053.16298611  .00056696  00000+0  78825-3 0   531",
      "2 45081  53.0514 315.5410 0012115  95.5356  19.2004 15.56215005    17"
    ]
  },
  "45087": {
    "noradId": "45087",
    "tle": [
      "1 45087C 20006AV  26053.19076389  .00012031  00000+0  41621-3 0   535",
      "2 45087  53.1545 314.3435 0001615  96.2823  55.9593 15.29332666    15"
    ]
  },
  "45088": {
    "noradId": "45088",
    "tle": [
      "1 45088C 20006AW  26053.16784722  .00013377  00000+0  46272-3 0   531",
      "2 45088  53.1550 314.6711 0001347  90.4402  53.9504 15.29336413    17"
    ]
  },
  "45096": {
    "noradId": "45096",
    "tle": [
      "1 45096C 20006BE  26053.18729167  .00050290  00000+0  13923-2 0   535",
      "2 45096  53.0397 279.4851 0007030 137.4289 203.6321 15.36344523    17"
    ]
  },
  "45098": {
    "noradId": "45098",
    "tle": [
      "1 45098C 20006BG  26053.21715278  .00028604  00000+0  17496-2 0   532",
      "2 45098  53.0530 315.2606 0006341  93.7994 122.9868 15.09696121    19"
    ]
  },
  "45100": {
    "noradId": "45100",
    "tle": [
      "1 45100C 20006BJ  26053.19840278  .00043312  00000+0  77185-3 0   537",
      "2 45100  53.0527 305.0572 0005264 146.6673 194.6053 15.49441844    19"
    ]
  },
  "45179": {
    "noradId": "45179",
    "tle": [
      "1 45179C 20012B   26053.21298611  .00161910  00000+0  20779-2 0   532",
      "2 45179  53.0478  45.3766 0005526  30.1157  60.0030 15.58320696    16"
    ]
  },
  "45183": {
    "noradId": "45183",
    "tle": [
      "1 45183C 20012F   26053.21020833 -.00012392  00000+0 -41765-3 0   536",
      "2 45183  53.1597 111.1527 0001392  85.2807 281.9997 15.30204212    12"
    ]
  }
}